GLOBALSTAR M024         
1 25883U 99043A   25184.75146015 -.00000121  00000+0 -19882-2 0  9995
2 25883  52.0054 343.2482 0002130 119.5280 253.2281 11.10167562116700
GLOBALSTAR M027         
1 25884U 99043B   25184.87880706 -.00000091  00000+0 -10529-2 0  9996
2 25884  52.0230  61.4151 0022009  19.6514 340.5123 11.04371663143084
GLOBALSTAR M054         
1 25885U 99043C   25184.73662285 -.00000043  00000+0  72943-3 0  9997
2 25885  52.0101 186.2554 0005726 206.9092 324.1032 11.39224753120935
GLOBALSTAR M053         
1 25886U 99043D   25184.58710870 -.00000054  00000+0  41240-3 0  9993
2 25886  51.9966 134.6160 0002973 101.4442  69.8610 11.27665808121294
GLOBALSTAR M058         
1 25907U 99049A   25185.14678389 -.00000093  00000+0 -11318-3 0  9991
2 25907  51.9952  63.8883 0001849 320.3916  39.6783 11.93199946154770
GLOBALSTAR M050         
1 25908U 99049B   25185.03658182 -.00000114  00000+0 -28901-3 0  9999
2 25908  52.0000  70.5993 0009861  64.3094  73.4811 12.07454440154955
GLOBALSTAR M033         
1 25909U 99049C   25184.56810933 -.00000046  00000+0  44133-3 0  9999
2 25909  51.9928 302.5865 0012927 296.4515  63.5006 12.20294403537746
GLOBALSTAR M055         
1 25910U 99049D   25185.08607192 -.00000078  00000+0  13664-3 0  9990
2 25910  52.0037 311.0544 0007547 162.9483 197.1624 12.29429353170581
